GLOBALSTAR M003 [-]     
1 25165U 98008D   17345.95249663  .00000025  00000-0  12188-2 0  9997
2 25165  51.9938 209.7247 0007174 155.7974 306.9063 12.11983895900467
